#aV2019  5  2  0  0  0.00000000     288 DD+AD WGS84 FIT  NGA
## 2051 345600.00000000   300.00000000 58605 0.0000000000000
+   31     1  2  3  5  6  7  8  9 10 11 12 13 14 15 16 17 18
+         19 20 21 22 23 24 25 26 27 28 29 30 31 32  0  0  0
+          0  0  0  0  0  0  0  0  0  0  0  0  0  0  0  0  0
+          0  0  0  0  0  0  0  0  0  0  0  0  0  0  0  0  0
+          0  0  0  0  0  0  0  0  0  0  0  0  0  0  0  0  0
++         2  2  2  2  2  2  2  2  2  2  2  2  2  2  2  2  2
++         2  2  2  2  2  2  2  2  2  2  2  2  2  2  0  0  0
++         0  0  0  0  0  0  0  0  0  0  0  0  0  0  0  0  0
++         0  0  0  0  0  0  0  0  0  0  0  0  0  0  0  0  0
++         0  0  0  0  0  0  0  0  0  0  0  0  0  0  0  0  0
%c cc cc ccc ccc cccc cccc cccc cccc ccccc ccccc ccccc ccccc
%c cc cc ccc ccc cccc cccc cccc cccc ccccc ccccc ccccc ccccc
%f  0.0000000  0.000000000  0.00000000000  0.000000000000000
%f  0.0000000  0.000000000  0.00000000000  0.000000000000000
%i    0    0    0    0      0      0      0      0         0
%i    0    0    0    0      0      0      0      0         0
/*      NGA, ST. LOUIS,MO.                                  
/*   EPHEMERIS COMPUTED FROM 2 DAYS OF DATA                 
/*   EPOCHA v3 SMOOTHER                                     
/*   G1762 IERS2010 SATAF SATAPC                            
*  2019  5  2 14 50  0.00000000
P  1  -6259.519897 -14011.885472 -21888.364851     -7.105902                    
V  1  26909.112900  -4512.564177  -4530.842861     -0.086008                    
P  2 -16655.466942  14755.305386  14988.896721   -203.391860                    
V  2 -18080.845326   1995.994407 -23150.052569     -0.092661                    
P  3 -10959.425674 -22706.348081  -8530.331045    188.277940                    
V  3   8738.887242   6738.030405 -29206.436969     -0.001794                    
P  5  -6006.370604  15526.896648  20533.398252      1.021366                    
V  5 -18114.408055 -19275.524451   9426.075608     -0.000780                    
P  6 -25364.135694   6958.033072   3875.292286    215.996075                    
V  6  -5168.086295  -1456.555222 -31543.130005     -0.097800                    
P  7 -19770.668465  -8515.278268  16114.354651    -16.313974                    
V  7  19351.907186  -4590.656372  21194.976550     -0.074700                    
P  8   4764.269544 -25316.991453  -5969.772383   -142.083436                    
V  8   5033.278902  -6330.376652  30885.211411     -0.014178                    
P  9 -11666.232908 -11451.679653  20890.966100    418.627949                    
V  9   9765.289011 -24809.004536  -8141.647187     -0.068012                    
P 10  19760.209269   5356.442221 -16962.773339     57.473144                    
V 10  12486.783182  17678.073210  19859.732930     -0.103017                    
P 11  -1681.699142 -17917.018713 -20129.127380   -614.969446                    
V 11  20857.424425 -13034.935150   9880.145686      0.077008                    
P 12   8797.493927  23326.336171  -9627.743563    246.080413                    
V 12  -8289.114191  -8619.686076 -28938.416067     -0.033988                    
P 13 -12779.597307  23238.140779    816.628009    -65.379701                    
V 13  -1779.866626  -2251.626438  31928.313896      0.016112                    
P 14  17357.292748 -13876.432535 -14089.702678    -82.150179                    
V 14  -5705.130435  17764.931517 -24167.046406      0.015620                    
P 15  -1156.319431  25347.907132  -7395.048293   -315.240390                    
V 15  -6157.925151   7858.654684  29311.977041      0.020800                    
P 16   6141.419080 -15250.904627  20563.667275    -37.018123                    
V 16  15874.406192  21362.895873  11425.221730     -0.028727                    
P 17 -16580.795250   5404.476409 -19601.484373     48.320775                    
V 17   9351.082531 -24010.832914 -14323.174551      0.062509                    
P 18   4190.126993 -16209.565896 -21080.852784     49.574376                    
V 18  25303.503257  -4637.687813   8936.166567      0.034438                    
P 19 -17777.561553  12753.158787 -15417.819706   -323.801022                    
V 19   7143.623261 -17621.214366 -23186.722712      0.045212                    
P 20  22113.573626  12015.470085  -8823.521851    524.423448                    
V 20   5723.661464  10036.778880  28193.576524      0.002834                    
P 21  22999.025276   4474.462108  13166.069608   -200.742666                    
V 21 -14600.082650   5831.630724  25210.566690      0.075205                    
P 22  -5507.662054 -21501.836437 -14407.297069   -694.034537                    
V 22  15000.759435  11628.848481 -22644.469614     -0.065817                    
P 23  -4162.173324 -21377.325931  15249.214102   -187.871208                    
V 23   8742.706468 -17054.808480 -22407.574841      0.015389                    
P 24   2665.474818  15537.841133 -21523.807566    -65.527013                    
V 24 -26484.198628   5552.121128   1060.562604     -0.005569                    
P 25  17632.737533  19979.976710   1476.163951   -752.065548                    
V 25   -449.951965   3098.450602 -31720.794095     -0.040496                    
P 26  14149.995798  -6934.568155  21376.850254    191.097830                    
V 26  17507.861633  20829.184363  -4651.922809      0.097688                    
P 27  12041.867344 -22959.041073   4866.843404   -122.132281                    
V 27     86.506566   6811.531594  31546.891709     -0.090975                    
P 28 -18700.514374  -7927.649428 -16457.699693    767.736253                    
V 28 -11060.312000 -19148.894648  21118.227442      0.001781                    
P 29   7063.339539  16214.324152  19783.965627    211.417356                    
V 29 -11158.971687  22528.330051 -14458.511097     -0.092364                    
P 30 -25903.279821  -1360.916402   6175.384359    -97.184232                    
V 30   7358.956242  -4054.340812  29882.511171     -0.069999                    
P 31  25281.218090  -7170.674228   5244.154472     40.987502                    
V 31   6841.746032   1464.995077 -30538.357716     -0.026451                    
P 32  16971.508209  -8295.359689 -18565.758403   -105.777948                    
V 32  -6676.650901  22844.288173 -16375.542281      0.172244                    
EOF
